[{"OBJECT_NAME":"ONEWEB-0215","OBJECT_ID":"2021-045AK","EPOCH":"2025-10-09T02:46:06.599424","MEAN_MOTION":13.15549216,"ECCENTRICITY":0.00018804,"INCLINATION":87.899,"RA_OF_ASC_NODE":309.266,"ARG_OF_PERICENTER":117.6165,"MEAN_ANOMALY":242.5156,"EPHEMERIS_TYPE":0,"CLASSIFICATION_TYPE":"U","NORAD_CAT_ID":48800,"ELEMENT_SET_NO":999,"REV_AT_EPOCH":21128,"BSTAR":-0.00027235876,"MEAN_MOTION_DOT":-9.0e-7,"MEAN_MOTION_DDOT":0},{"OBJECT_NAME":"ONEWEB-0216","OBJECT_ID":"2021-045AL","EPOCH":"2025-10-09T02:59:48.050016","MEAN_MOTION":13.15548903,"ECCENTRICITY":0.00016405,"INCLINATION":87.8977,"RA_OF_ASC_NODE":309.3022,"ARG_OF_PERICENTER":94.8773,"MEAN_ANOMALY":265.2545,"EPHEMERIS_TYPE":0,"CLASSIFICATION_TYPE":"U","NORAD_CAT_ID":48801,"ELEMENT_SET_NO":999,"REV_AT_EPOCH":21129,"BSTAR":3.1780365e-5,"MEAN_MOTION_DOT":2.5e-7,"MEAN_MOTION_DDOT":0},{"OBJECT_NAME":"ONEWEB-0239","OBJECT_ID":"2021-045AM","EPOCH":"2025-10-09T03:06:38.062944","MEAN_MOTION":13.15547054,"ECCENTRICITY":0.00021326,"INCLINATION":87.8977,"RA_OF_ASC_NODE":309.3158,"ARG_OF_PERICENTER":117.2503,"MEAN_ANOMALY":242.8844,"EPHEMERIS_TYPE":0,"CLASSIFICATION_TYPE":"U","NORAD_CAT_ID":48802,"ELEMENT_SET_NO":999,"REV_AT_EPOCH":21133,"BSTAR":0.00022045129,"MEAN_MOTION_DOT":9.6e-7,"MEAN_MOTION_DDOT":0},{"OBJECT_NAME":"ONEWEB-0249","OBJECT_ID":"2021-060A","EPOCH":"2025-10-09T06:17:26.513088","MEAN_MOTION":13.16591036,"ECCENTRICITY":0.00019585,"INCLINATION":87.8967,"RA_OF_ASC_NODE":278.7751,"ARG_OF_PERICENTER":90.9444,"MEAN_ANOMALY":269.1911,"EPHEMERIS_TYPE":0,"CLASSIFICATION_TYPE":"U","NORAD_CAT_ID":48967,"ELEMENT_SET_NO":999,"REV_AT_EPOCH":20659,"BSTAR":-0.0020070176,"MEAN_MOTION_DOT":-7.54e-6,"MEAN_MOTION_DDOT":0},{"OBJECT_NAME":"ONEWEB-0250","OBJECT_ID":"2021-060B","EPOCH":"2025-10-09T05:23:30.692256","MEAN_MOTION":13.25815068,"ECCENTRICITY":0.00028078,"INCLINATION":87.8962,"RA_OF_ASC_NODE":277.3602,"ARG_OF_PERICENTER":100.2728,"MEAN_ANOMALY":259.8725,"EPHEMERIS_TYPE":0,"CLASSIFICATION_TYPE":"U","NORAD_CAT_ID":48968,"ELEMENT_SET_NO":999,"REV_AT_EPOCH":20696,"BSTAR":-4.9349296e-5,"MEAN_MOTION_DOT":-8.0e-8,"MEAN_MOTION_DDOT":0},{"OBJECT_NAME":"ONEWEB-0252","OBJECT_ID":"2021-060D","EPOCH":"2025-10-09T07:03:04.650048","MEAN_MOTION":13.16597026,"ECCENTRICITY":0.00015825,"INCLINATION":87.8963,"RA_OF_ASC_NODE":278.7621,"ARG_OF_PERICENTER":86.7113,"MEAN_ANOMALY":273.4199,"EPHEMERIS_TYPE":0,"CLASSIFICATION_TYPE":"U","NORAD_CAT_ID":48970,"ELEMENT_SET_NO":999,"REV_AT_EPOCH":20664,"BSTAR":0.00059338461,"MEAN_MOTION_DOT":2.4e-6,"MEAN_MOTION_DDOT":0},{"OBJECT_NAME":"ONEWEB-0253","OBJECT_ID":"2021-060E","EPOCH":"2025-10-09T06:47:06.069696","MEAN_MOTION":13.16594964,"ECCENTRICITY":0.00017723,"INCLINATION":87.8971,"RA_OF_ASC_NODE":278.7678,"ARG_OF_PERICENTER":95.7583,"MEAN_ANOMALY":264.375,"EPHEMERIS_TYPE":0,"CLASSIFICATION_TYPE":"U","NORAD_CAT_ID":48971,"ELEMENT_SET_NO":999,"REV_AT_EPOCH":20657,"BSTAR":0.00031853422,"MEAN_MOTION_DOT":1.35e-6,"MEAN_MOTION_DDOT":0},{"OBJECT_NAME":"ONEWEB-0254","OBJECT_ID":"2021-060F","EPOCH":"2025-10-09T07:00:48.088800","MEAN_MOTION":13.1659639,"ECCENTRICITY":0.00019502,"INCLINATION":87.8971,"RA_OF_ASC_NODE":278.7541,"ARG_OF_PERICENTER":101.9909,"MEAN_ANOMALY":258.1441,"EPHEMERIS_TYPE":0,"CLASSIFICATION_TYPE":"U","NORAD_CAT_ID":48972,"ELEMENT_SET_NO":999,"REV_AT_EPOCH":20657,"BSTAR":0.00051509278,"MEAN_MOTION_DOT":2.1e-6,"MEAN_MOTION_DDOT":0},{"OBJECT_NAME":"ONEWEB-0255","OBJECT_ID":"2021-060G","EPOCH":"2025-10-09T06:06:04.623552","MEAN_MOTION":13.1659337,"ECCENTRICITY":0.00018722,"INCLINATION":87.896,"RA_OF_ASC_NODE":278.7851,"ARG_OF_PERICENTER":97.9735,"MEAN_ANOMALY":262.1608,"EPHEMERIS_TYPE":0,"CLASSIFICATION_TYPE":"U","NORAD_CAT_ID":48973,"ELEMENT_SET_NO":999,"REV_AT_EPOCH":20664,"BSTAR":-0.00043025138,"MEAN_MOTION_DOT":-1.52e-6,"MEAN_MOTION_DDOT":0},{"OBJECT_NAME":"ONEWEB-0256","OBJECT_ID":"2021-060H","EPOCH":"2025-10-09T06:43:41.292192","MEAN_MOTION":13.16594275,"ECCENTRICITY":0.00018315,"INCLINATION":87.8959,"RA_OF_ASC_NODE":278.7904,"ARG_OF_PERICENTER":85.8254,"MEAN_ANOMALY":274.3087,"EPHEMERIS_TYPE":0,"CLASSIFICATION_TYPE":"U","NORAD_CAT_ID":48974,"ELEMENT_SET_NO":999,"REV_AT_EPOCH":20661,"BSTAR":0.00022588748,"MEAN_MOTION_DOT":9.9e-7,"MEAN_MOTION_DDOT":0},{"OBJECT_NAME":"ONEWEB-0257","OBJECT_ID":"2021-060J","EPOCH":"2025-10-09T05:40:59.453472","MEAN_MOTION":13.16593337,"ECCENTRICITY":0.00017647,"INCLINATION":87.8971,"RA_OF_ASC_NODE":278.7708,"ARG_OF_PERICENTER":94.1605,"MEAN_ANOMALY":265.9728,"EPHEMERIS_TYPE":0,"CLASSIFICATION_TYPE":"U","NORAD_CAT_ID":48975,"ELEMENT_SET_NO":999,"REV_AT_EPOCH":20656,"BSTAR":-0.00020940186,"MEAN_MOTION_DOT":-6.7e-7,"MEAN_MOTION_DDOT":0},{"OBJECT_NAME":"ONEWEB-0258","OBJECT_ID":"2021-060K","EPOCH":"2025-10-09T05:43:16.911552","MEAN_MOTION":13.16594393,"ECCENTRICITY":0.00020071,"INCLINATION":87.8961,"RA_OF_ASC_NODE":278.7913,"ARG_OF_PERICENTER":90.442,"MEAN_ANOMALY":269.694,"EPHEMERIS_TYPE":0,"CLASSIFICATION_TYPE":"U","NORAD_CAT_ID":48976,"ELEMENT_SET_NO":999,"REV_AT_EPOCH":20657,"BSTAR":0.00016619852,"MEAN_MOTION_DOT":7.6e-7,"MEAN_MOTION_DDOT":0},{"OBJECT_NAME":"ONEWEB-0259","OBJECT_ID":"2021-060L","EPOCH":"2025-10-09T05:34:09.906240","MEAN_MOTION":13.16589163,"ECCENTRICITY":0.00018294,"INCLINATION":87.8966,"RA_OF_ASC_NODE":278.7806,"ARG_OF_PERICENTER":94.1002,"MEAN_ANOMALY":266.0338,"EPHEMERIS_TYPE":0,"CLASSIFICATION_TYPE":"U","NORAD_CAT_ID":48977,"ELEMENT_SET_NO":999,"REV_AT_EPOCH":20660,"BSTAR":0.0021616727,"MEAN_MOTION_DOT":8.39e-6,"MEAN_MOTION_DDOT":0},{"OBJECT_NAME":"ONEWEB-0260","OBJECT_ID":"2021-060M","EPOCH":"2025-10-09T05:21:36.081792","MEAN_MOTION":13.1659349,"ECCENTRICITY":0.00013972,"INCLINATION":87.8956,"RA_OF_ASC_NODE":278.8033,"ARG_OF_PERICENTER":77.1665,"MEAN_ANOMALY":282.9621,"EPHEMERIS_TYPE":0,"CLASSIFICATION_TYPE":"U","NORAD_CAT_ID":48978,"ELEMENT_SET_NO":999,"REV_AT_EPOCH":20658,"BSTAR":-0.0020830512,"MEAN_MOTION_DOT":-7.83e-6,"MEAN_MOTION_DDOT":0},{"OBJECT_NAME":"ONEWEB-0261","OBJECT_ID":"2021-060N","EPOCH":"2025-10-09T06:27:43.538688","MEAN_MOTION":13.16595456,"ECCENTRICITY":0.000156,"INCLINATION":87.8957,"RA_OF_ASC_NODE":278.7958,"ARG_OF_PERICENTER":101.6702,"MEAN_ANOMALY":258.4604,"EPHEMERIS_TYPE":0,"CLASSIFICATION_TYPE":"U","NORAD_CAT_ID":48979,"ELEMENT_SET_NO":999,"REV_AT_EPOCH":20664,"BSTAR":-0.00011759414,"MEAN_MOTION_DOT":-3.2e-7,"MEAN_MOTION_DDOT":0},{"OBJECT_NAME":"ONEWEB-0262","OBJECT_ID":"2021-060P","EPOCH":"2025-10-09T05:59:14.281440","MEAN_MOTION":13.16593791,"ECCENTRICITY":0.00020691,"INCLINATION":87.8968,"RA_OF_ASC_NODE":278.7668,"ARG_OF_PERICENTER":97.7047,"MEAN_ANOMALY":262.4319,"EPHEMERIS_TYPE":0,"CLASSIFICATION_TYPE":"U","NORAD_CAT_ID":48980,"ELEMENT_SET_NO":999,"REV_AT_EPOCH":20660,"BSTAR":-6.3542159e-5,"MEAN_MOTION_DOT":-1.1e-7,"MEAN_MOTION_DDOT":0}]
