ONEWEB-0215             
1 48800U 21045AK  25282.11535416 -.00000090  00000+0 -27236-3 0  9990
2 48800  87.8990 309.2660 0001880 117.6165 242.5156 13.15549216211289
ONEWEB-0216             
1 48801U 21045AL  25282.12486169  .00000025  00000+0  31780-4 0  9998
2 48801  87.8977 309.3022 0001640  94.8773 265.2545 13.15548903211290
ONEWEB-0239             
1 48802U 21045AM  25282.12960721  .00000096  00000+0  22045-3 0  9991
2 48802  87.8977 309.3158 0002132 117.2503 242.8844 13.15547054211333
ONEWEB-0249             
1 48967U 21060A   25282.26211242 -.00000754  00000+0 -20070-2 0  9990
2 48967  87.8967 278.7751 0001958  90.9444 269.1911 13.16591036206597
ONEWEB-0250             
1 48968U 21060B   25282.22466079 -.00000008  00000+0 -49349-4 0  9991
2 48968  87.8962 277.3602 0002807 100.2728 259.8725 13.25815068206961
ONEWEB-0252             
1 48970U 21060D   25282.29380382  .00000240  00000+0  59338-3 0  9997
2 48970  87.8963 278.7621 0001582  86.7113 273.4199 13.16597026206649
ONEWEB-0253             
1 48971U 21060E   25282.28270914  .00000135  00000+0  31853-3 0  9991
2 48971  87.8971 278.7678 0001772  95.7583 264.3750 13.16594964206575
ONEWEB-0254             
1 48972U 21060F   25282.29222325  .00000210  00000+0  51509-3 0  9990
2 48972  87.8971 278.7541 0001950 101.9909 258.1441 13.16596390206578
ONEWEB-0255             
1 48973U 21060G   25282.25422018 -.00000152  00000+0 -43025-3 0  9999
2 48973  87.8960 278.7851 0001872  97.9735 262.1608 13.16593370206648
ONEWEB-0256             
1 48974U 21060H   25282.28033903  .00000099  00000+0  22589-3 0  9994
2 48974  87.8959 278.7904 0001831  85.8254 274.3087 13.16594275206611
ONEWEB-0257             
1 48975U 21060J   25282.23679923 -.00000067  00000+0 -20940-3 0  9994
2 48975  87.8971 278.7708 0001764  94.1605 265.9728 13.16593337206566
ONEWEB-0258             
1 48976U 21060K   25282.23839018  .00000076  00000+0  16620-3 0  9996
2 48976  87.8961 278.7913 0002007  90.4420 269.6940 13.16594393206570
ONEWEB-0259             
1 48977U 21060L   25282.23205910  .00000839  00000+0  21617-2 0  9993
2 48977  87.8966 278.7806 0001829  94.1002 266.0338 13.16589163206600
ONEWEB-0260             
1 48978U 21060M   25282.22333428 -.00000783  00000+0 -20831-2 0  9996
2 48978  87.8956 278.8033 0001397  77.1665 282.9621 13.16593490206586
ONEWEB-0261             
1 48979U 21060N   25282.26925392 -.00000032  00000+0 -11759-3 0  9995
2 48979  87.8957 278.7958 0001560 101.6702 258.4604 13.16595456206640
ONEWEB-0262             
1 48980U 21060P   25282.24947085 -.00000011  00000+0 -63542-4 0  9993
2 48980  87.8968 278.7668 0002069  97.7047 262.4319 13.16593791206608
